[{"OBJECT_NAME":"STARLINK-36925","OBJECT_ID":"2026-041C","EPOCH":"2026-03-20T05:43:43.469184","MEAN_MOTION":15.75280276,"ECCENTRICITY":0.00013263,"INCLINATION":53.1597,"RA_OF_ASC_NODE":9.5054,"ARG_OF_PERICENTER":82.7719,"MEAN_ANOMALY":277.3452,"EPHEMERIS_TYPE":0,"CLASSIFICATION_TYPE":"U","NORAD_CAT_ID":68042,"ELEMENT_SET_NO":999,"REV_AT_EPOCH":288,"BSTAR":0.001038206,"MEAN_MOTION_DOT":0.00161877,"MEAN_MOTION_DDOT":0},{"OBJECT_NAME":"STARLINK-36902","OBJECT_ID":"2026-041D","EPOCH":"2026-03-20T05:12:00.246528","MEAN_MOTION":15.80959836,"ECCENTRICITY":0.00012033,"INCLINATION":53.16,"RA_OF_ASC_NODE":9.3598,"ARG_OF_PERICENTER":102.111,"MEAN_ANOMALY":258.0048,"EPHEMERIS_TYPE":0,"CLASSIFICATION_TYPE":"U","NORAD_CAT_ID":68043,"ELEMENT_SET_NO":999,"REV_AT_EPOCH":288,"BSTAR":0.0014140602,"MEAN_MOTION_DOT":0.00289091,"MEAN_MOTION_DDOT":0},{"OBJECT_NAME":"STARLINK-36966","OBJECT_ID":"2026-041E","EPOCH":"2026-03-20T05:37:11.213184","MEAN_MOTION":15.75271128,"ECCENTRICITY":8.596e-5,"INCLINATION":53.1599,"RA_OF_ASC_NODE":9.4763,"ARG_OF_PERICENTER":106.5214,"MEAN_ANOMALY":253.5901,"EPHEMERIS_TYPE":0,"CLASSIFICATION_TYPE":"U","NORAD_CAT_ID":68044,"ELEMENT_SET_NO":999,"REV_AT_EPOCH":288,"BSTAR":0.00088007224,"MEAN_MOTION_DOT":0.00136656,"MEAN_MOTION_DDOT":0},{"OBJECT_NAME":"STARLINK-36864","OBJECT_ID":"2026-041F","EPOCH":"2026-03-20T05:36:42.871392","MEAN_MOTION":15.75263744,"ECCENTRICITY":9.887e-5,"INCLINATION":53.1599,"RA_OF_ASC_NODE":9.4735,"ARG_OF_PERICENTER":106.977,"MEAN_ANOMALY":253.1359,"EPHEMERIS_TYPE":0,"CLASSIFICATION_TYPE":"U","NORAD_CAT_ID":68045,"ELEMENT_SET_NO":999,"REV_AT_EPOCH":288,"BSTAR":0.00078854095,"MEAN_MOTION_DOT":0.00122125,"MEAN_MOTION_DDOT":0},{"OBJECT_NAME":"STARLINK-36321","OBJECT_ID":"2026-041G","EPOCH":"2026-03-20T05:07:40.837440","MEAN_MOTION":15.80989807,"ECCENTRICITY":6.475e-5,"INCLINATION":53.16,"RA_OF_ASC_NODE":9.3392,"ARG_OF_PERICENTER":103.3931,"MEAN_ANOMALY":256.7164,"EPHEMERIS_TYPE":0,"CLASSIFICATION_TYPE":"U","NORAD_CAT_ID":68046,"ELEMENT_SET_NO":999,"REV_AT_EPOCH":288,"BSTAR":0.00166623,"MEAN_MOTION_DOT":0.00343437,"MEAN_MOTION_DDOT":0},{"OBJECT_NAME":"STARLINK-36181","OBJECT_ID":"2026-041H","EPOCH":"2026-03-20T05:08:45.916512","MEAN_MOTION":15.80954175,"ECCENTRICITY":0.00013125,"INCLINATION":53.1599,"RA_OF_ASC_NODE":9.3439,"ARG_OF_PERICENTER":87.6994,"MEAN_ANOMALY":272.4179,"EPHEMERIS_TYPE":0,"CLASSIFICATION_TYPE":"U","NORAD_CAT_ID":68047,"ELEMENT_SET_NO":999,"REV_AT_EPOCH":288,"BSTAR":0.0014391667,"MEAN_MOTION_DOT":0.0029434,"MEAN_MOTION_DDOT":0},{"OBJECT_NAME":"STARLINK-36318","OBJECT_ID":"2026-041J","EPOCH":"2026-03-20T05:30:38.928672","MEAN_MOTION":15.75268637,"ECCENTRICITY":8.68e-5,"INCLINATION":53.1605,"RA_OF_ASC_NODE":9.4456,"ARG_OF_PERICENTER":100.7214,"MEAN_ANOMALY":259.3904,"EPHEMERIS_TYPE":0,"CLASSIFICATION_TYPE":"U","NORAD_CAT_ID":68048,"ELEMENT_SET_NO":999,"REV_AT_EPOCH":288,"BSTAR":0.00070342261,"MEAN_MOTION_DOT":0.00108722,"MEAN_MOTION_DDOT":0},{"OBJECT_NAME":"STARLINK-36885","OBJECT_ID":"2026-041K","EPOCH":"2026-03-20T05:30:10.509120","MEAN_MOTION":15.75264439,"ECCENTRICITY":8.623e-5,"INCLINATION":53.1604,"RA_OF_ASC_NODE":9.4432,"ARG_OF_PERICENTER":93.9212,"MEAN_ANOMALY":266.1907,"EPHEMERIS_TYPE":0,"CLASSIFICATION_TYPE":"U","NORAD_CAT_ID":68049,"ELEMENT_SET_NO":999,"REV_AT_EPOCH":288,"BSTAR":0.00064411018,"MEAN_MOTION_DOT":0.00099371,"MEAN_MOTION_DDOT":0},{"OBJECT_NAME":"STARLINK-36945","OBJECT_ID":"2026-041L","EPOCH":"2026-03-20T05:05:31.439616","MEAN_MOTION":15.80926995,"ECCENTRICITY":8.434e-5,"INCLINATION":53.16,"RA_OF_ASC_NODE":9.3295,"ARG_OF_PERICENTER":95.1602,"MEAN_ANOMALY":264.9517,"EPHEMERIS_TYPE":0,"CLASSIFICATION_TYPE":"U","NORAD_CAT_ID":68050,"ELEMENT_SET_NO":999,"REV_AT_EPOCH":288,"BSTAR":0.00079445651,"MEAN_MOTION_DOT":0.00159424,"MEAN_MOTION_DDOT":0},{"OBJECT_NAME":"STARLINK-35911","OBJECT_ID":"2026-041M","EPOCH":"2026-03-20T05:03:21.747168","MEAN_MOTION":15.80938048,"ECCENTRICITY":0.00010107,"INCLINATION":53.1599,"RA_OF_ASC_NODE":9.3194,"ARG_OF_PERICENTER":98.6547,"MEAN_ANOMALY":261.4591,"EPHEMERIS_TYPE":0,"CLASSIFICATION_TYPE":"U","NORAD_CAT_ID":68051,"ELEMENT_SET_NO":999,"REV_AT_EPOCH":288,"BSTAR":0.0010296506,"MEAN_MOTION_DOT":0.00208115,"MEAN_MOTION_DDOT":0},{"OBJECT_NAME":"STARLINK-35808","OBJECT_ID":"2026-041N","EPOCH":"2026-03-20T05:02:18.343392","MEAN_MOTION":15.80883182,"ECCENTRICITY":0.00010872,"INCLINATION":53.1599,"RA_OF_ASC_NODE":9.3135,"ARG_OF_PERICENTER":94.9492,"MEAN_ANOMALY":265.1655,"EPHEMERIS_TYPE":0,"CLASSIFICATION_TYPE":"U","NORAD_CAT_ID":68052,"ELEMENT_SET_NO":999,"REV_AT_EPOCH":288,"BSTAR":0.0010372591,"MEAN_MOTION_DOT":0.00209154,"MEAN_MOTION_DDOT":0},{"OBJECT_NAME":"STARLINK-36919","OBJECT_ID":"2026-041P","EPOCH":"2026-03-20T05:01:12.141984","MEAN_MOTION":15.80918759,"ECCENTRICITY":9.723e-5,"INCLINATION":53.1601,"RA_OF_ASC_NODE":9.3078,"ARG_OF_PERICENTER":104.0535,"MEAN_ANOMALY":256.0596,"EPHEMERIS_TYPE":0,"CLASSIFICATION_TYPE":"U","NORAD_CAT_ID":68053,"ELEMENT_SET_NO":999,"REV_AT_EPOCH":288,"BSTAR":0.0008824555,"MEAN_MOTION_DOT":0.00177467,"MEAN_MOTION_DDOT":0},{"OBJECT_NAME":"STARLINK-36924","OBJECT_ID":"2026-041Q","EPOCH":"2026-03-20T05:24:06.753024","MEAN_MOTION":15.75285626,"ECCENTRICITY":8.911e-5,"INCLINATION":53.1606,"RA_OF_ASC_NODE":9.4153,"ARG_OF_PERICENTER":92.3784,"MEAN_ANOMALY":267.7338,"EPHEMERIS_TYPE":0,"CLASSIFICATION_TYPE":"U","NORAD_CAT_ID":68054,"ELEMENT_SET_NO":999,"REV_AT_EPOCH":288,"BSTAR":0.0009497251,"MEAN_MOTION_DOT":0.00147812,"MEAN_MOTION_DDOT":0},{"OBJECT_NAME":"STARLINK-35998","OBJECT_ID":"2026-041R","EPOCH":"2026-03-20T05:00:07.263360","MEAN_MOTION":15.80931405,"ECCENTRICITY":0.0001032,"INCLINATION":53.1599,"RA_OF_ASC_NODE":9.3036,"ARG_OF_PERICENTER":86.1867,"MEAN_ANOMALY":273.9273,"EPHEMERIS_TYPE":0,"CLASSIFICATION_TYPE":"U","NORAD_CAT_ID":68055,"ELEMENT_SET_NO":999,"REV_AT_EPOCH":288,"BSTAR":0.00090250339,"MEAN_MOTION_DOT":0.00181711,"MEAN_MOTION_DDOT":0},{"OBJECT_NAME":"STARLINK-36845","OBJECT_ID":"2026-041S","EPOCH":"2026-03-20T04:57:57.597696","MEAN_MOTION":15.80953967,"ECCENTRICITY":8.873e-5,"INCLINATION":53.1597,"RA_OF_ASC_NODE":9.293,"ARG_OF_PERICENTER":89.4004,"MEAN_ANOMALY":270.7121,"EPHEMERIS_TYPE":0,"CLASSIFICATION_TYPE":"U","NORAD_CAT_ID":68056,"ELEMENT_SET_NO":999,"REV_AT_EPOCH":288,"BSTAR":0.0012493259,"MEAN_MOTION_DOT":0.00254222,"MEAN_MOTION_DDOT":0},{"OBJECT_NAME":"STARLINK-36954","OBJECT_ID":"2026-041T","EPOCH":"2026-03-20T05:23:38.380128","MEAN_MOTION":15.75272167,"ECCENTRICITY":9.27e-5,"INCLINATION":53.1606,"RA_OF_ASC_NODE":9.4123,"ARG_OF_PERICENTER":86.7169,"MEAN_ANOMALY":273.3958,"EPHEMERIS_TYPE":0,"CLASSIFICATION_TYPE":"U","NORAD_CAT_ID":68057,"ELEMENT_SET_NO":999,"REV_AT_EPOCH":288,"BSTAR":0.00086959699,"MEAN_MOTION_DOT":0.00135001,"MEAN_MOTION_DDOT":0}]
