STARLINK-36925          
1 68042U 26041C   26079.23869756  .00161877  00000+0  10382-2 0  9998
2 68042  53.1597   9.5054 0001326  82.7719 277.3452 15.75280276  2882
STARLINK-36902          
1 68043U 26041D   26079.21666952  .00289091  00000+0  14141-2 0  9996
2 68043  53.1600   9.3598 0001203 102.1110 258.0048 15.80959836  2883
STARLINK-36966          
1 68044U 26041E   26079.23415756  .00136656  00000+0  88007-3 0  9994
2 68044  53.1599   9.4763 0000859 106.5214 253.5901 15.75271128  2888
STARLINK-36864          
1 68045U 26041F   26079.23382953  .00122125  00000+0  78854-3 0  9992
2 68045  53.1599   9.4735 0000988 106.9770 253.1359 15.75263744  2880
STARLINK-36321          
1 68046U 26041G   26079.21366710  .00343437  00000+0  16662-2 0  9993
2 68046  53.1600   9.3392 0000647 103.3931 256.7164 15.80989807  2888
STARLINK-36181          
1 68047U 26041H   26079.21442033  .00294340  00000+0  14392-2 0  9993
2 68047  53.1599   9.3439 0001312  87.6994 272.4179 15.80954175  2882
STARLINK-36318          
1 68048U 26041J   26079.22961723  .00108722  00000+0  70342-3 0  9993
2 68048  53.1605   9.4456 0000868 100.7214 259.3904 15.75268637  2883
STARLINK-36885          
1 68049U 26041K   26079.22928830  .00099371  00000+0  64411-3 0  9995
2 68049  53.1604   9.4432 0000862  93.9212 266.1907 15.75264439  2887
STARLINK-36945          
1 68050U 26041L   26079.21216944  .00159424  00000+0  79446-3 0  9992
2 68050  53.1600   9.3295 0000843  95.1602 264.9517 15.80926995  2888
STARLINK-35911          
1 68051U 26041M   26079.21066837  .00208115  00000+0  10297-2 0  9997
2 68051  53.1599   9.3194 0001010  98.6547 261.4591 15.80938048  2883
STARLINK-35808          
1 68052U 26041N   26079.20993453  .00209154  00000+0  10373-2 0  9999
2 68052  53.1599   9.3135 0001087  94.9492 265.1655 15.80883182  2881
STARLINK-36919          
1 68053U 26041P   26079.20916831  .00177467  00000+0  88246-3 0  9991
2 68053  53.1601   9.3078 0000972 104.0535 256.0596 15.80918759  2887
STARLINK-36924          
1 68054U 26041Q   26079.22507816  .00147812  00000+0  94973-3 0  9998
2 68054  53.1606   9.4153 0000891  92.3784 267.7338 15.75285626  2880
STARLINK-35998          
1 68055U 26041R   26079.20841740  .00181711  00000+0  90250-3 0  9994
2 68055  53.1599   9.3036 0001032  86.1867 273.9273 15.80931405  2888
STARLINK-36845          
1 68056U 26041S   26079.20691664  .00254222  00000+0  12493-2 0  9993
2 68056  53.1597   9.2930 0000887  89.4004 270.7121 15.80953967  2889
STARLINK-36954          
1 68057U 26041T   26079.22474977  .00135001  00000+0  86960-3 0  9996
2 68057  53.1606   9.4123 0000927  86.7169 273.3958 15.75272167  2881
